[{"spaceTrack":{"CCSDS_OMM_VERS":"2.0","COMMENT":"GENERATED VIA SPACE-TRACK.ORG API","CREATION_DATE":"2021-05-12T14:46:11","ORIGINATOR":"18 SPCS","OBJECT_NAME":"STARLINK-1469","OBJECT_ID":"2020-038Y","CENTER_NAME":"EARTH","REF_FRAME":"TEME","TIME_SYSTEM":"UTC","MEAN_ELEMENT_THEORY":"SGP4","EPOCH":"2021-05-12T06:11:18.385152","MEAN_MOTION":15.66239069,"ECCENTRICITY":0.0006768,"INCLINATION":52.9979,"RA_OF_ASC_NODE":87.295,"ARG_OF_PERICENTER":332.5616,"MEAN_ANOMALY":27.504,"EPHEMERIS_TYPE":0,"CLASSIFICATION_TYPE":"U","NORAD_CAT_ID":45752,"ELEMENT_SET_NO":999,"REV_AT_EPOCH":5363,"BSTAR":-0.000010619,"MEAN_MOTION_DOT":-0.00001687,"MEAN_MOTION_DDOT":0,"SEMIMAJOR_AXIS":6747.815,"PERIOD":91.94,"APOAPSIS":374.246,"PERIAPSIS":365.113,"OBJECT_TYPE":"PAYLOAD","RCS_SIZE":"LARGE","COUNTRY_CODE":"US","LAUNCH_DATE":"2020-06-13","SITE":"AFETR","DECAY_DATE":null,"DECAYED":0,"FILE":3035517,"GP_ID":177114030,"TLE_LINE0":"0 STARLINK-1469","TLE_LINE1":"1 45752U 20038Y   21132.25785168 -.00001687  00000-0 -10619-4 0  9992","TLE_LINE2":"2 45752  52.9979  87.2950 0006768 332.5616  27.5040 15.66239069 53632"},"version":"v1.0","launch":"5eb87d46ffd86e000604b389","longitude":-39.52817178045091,"latitude":29.89727131319031,"height_km":369.36517765732515,"velocity_kms":7.693117543279084,"id":"5eed7716096e5900069857f0"},{"spaceTrack":{"CCSDS_OMM_VERS":"2.0","COMMENT":"GENERATED VIA SPACE-TRACK.ORG API","CREATION_DATE":"2021-05-12T07:46:11","ORIGINATOR":"18 SPCS","OBJECT_NAME":"STARLINK-1493","OBJECT_ID":"2020-038AF","CENTER_NAME":"EARTH","REF_FRAME":"TEME","TIME_SYSTEM":"UTC","MEAN_ELEMENT_THEORY":"SGP4","EPOCH":"2021-05-12T05:09:39.538080","MEAN_MOTION":15.06398063,"ECCENTRICITY":0.0000738,"INCLINATION":53.057,"RA_OF_ASC_NODE":208.6756,"ARG_OF_PERICENTER":133.5436,"MEAN_ANOMALY":226.5615,"EPHEMERIS_TYPE":0,"CLASSIFICATION_TYPE":"U","NORAD_CAT_ID":45759,"ELEMENT_SET_NO":999,"REV_AT_EPOCH":5175,"BSTAR":0.000050175,"MEAN_MOTION_DOT":0.00000466,"MEAN_MOTION_DDOT":0,"SEMIMAJOR_AXIS":6925.354,"PERIOD":95.592,"APOAPSIS":547.731,"PERIAPSIS":546.708,"OBJECT_TYPE":"PAYLOAD","RCS_SIZE":"LARGE","COUNTRY_CODE":"US","LAUNCH_DATE":"2020-06-13","SITE":"AFETR","DECAY_DATE":null,"DECAYED":0,"FILE":3035324,"GP_ID":177109994,"TLE_LINE0":"0 STARLINK-1493","TLE_LINE1":"1 45759U 20038AF  21132.21504095  .00000466  00000-0  50175-4 0  9996","TLE_LINE2":"2 45759  53.0570 208.6756 0000738 133.5436 226.5615 15.06398063 51755"},"version":"v1.0","launch":"5eb87d46ffd86e000604b389","longitude":-136.62415907833596,"latitude":16.745213973932145,"height_km":546.9896804929585,"velocity_kms":7.59141896674336,"id":"5eed7716096e5900069857f1"},{"spaceTrack":{"CCSDS_OMM_VERS":"2.0","COMMENT":"GENERATED VIA SPACE-TRACK.ORG API","CREATION_DATE":"2021-05-12T14:46:11","ORIGINATOR":"18 SPCS","OBJECT_NAME":"STARLINK-1478","OBJECT_ID":"2020-038AB","CENTER_NAME":"EARTH","REF_FRAME":"TEME","TIME_SYSTEM":"UTC","MEAN_ELEMENT_THEORY":"SGP4","EPOCH":"2021-05-12T11:47:44.409408","MEAN_MOTION":15.06393434,"ECCENTRICITY":0.0000933,"INCLINATION":53.056,"RA_OF_ASC_NODE":207.4286,"ARG_OF_PERICENTER":116.051,"MEAN_ANOMALY":244.0575,"EPHEMERIS_TYPE":0,"CLASSIFICATION_TYPE":"U","NORAD_CAT_ID":45755,"ELEMENT_SET_NO":999,"REV_AT_EPOCH":5198,"BSTAR":0.000057169,"MEAN_MOTION_DOT":0.0000057,"MEAN_MOTION_DDOT":0,"SEMIMAJOR_AXIS":6925.369,"PERIOD":95.593,"APOAPSIS":547.88,"PERIAPSIS":546.588,"OBJECT_TYPE":"PAYLOAD","RCS_SIZE":"LARGE","COUNTRY_CODE":"US","LAUNCH_DATE":"2020-06-13","SITE":"AFETR","DECAY_DATE":null,"DECAYED":0,"FILE":3035511,"GP_ID":177113564,"TLE_LINE0":"0 STARLINK-1478","TLE_LINE1":"1 45755U 20038AB  21132.49148622  .00000570  00000-0  57169-4 0  9998","TLE_LINE2":"2 45755  53.0560 207.4286 0000933 116.0510 244.0575 15.06393434 51983"},"version":"v1.0","launch":"5eb87d46ffd86e000604b389","longitude":159.9678494630406,"latitude":52.42832858831337,"height_km":553.0067674017773,"velocity_kms":7.5919006083276335,"id":"5eed7716096e5900069857f2"},{"spaceTrack":{"CCSDS_OMM_VERS":"2.0","COMMENT":"GENERATED VIA SPACE-TRACK.ORG API","CREATION_DATE":"2021-05-12T14:56:11","ORIGINATOR":"18 SPCS","OBJECT_NAME":"STARLINK-1439","OBJECT_ID":"2020-035BM","CENTER_NAME":"EARTH","REF_FRAME":"TEME","TIME_SYSTEM":"UTC","MEAN_ELEMENT_THEORY":"SGP4","EPOCH":"2021-05-12T11:16:58.688544","MEAN_MOTION":15.55840906,"ECCENTRICITY":0.0001328,"INCLINATION":52.9978,"RA_OF_ASC_NODE":301.0375,"ARG_OF_PERICENTER":72.1484,"MEAN_ANOMALY":287.9671,"EPHEMERIS_TYPE":0,"CLASSIFICATION_TYPE":"U","NORAD_CAT_ID":45716,"ELEMENT_SET_NO":999,"REV_AT_EPOCH":5474,"BSTAR":-0.000014537,"MEAN_MOTION_DOT":-0.00001511,"MEAN_MOTION_DDOT":0,"SEMIMAJOR_AXIS":6777.846,"PERIOD":92.554,"APOAPSIS":400.611,"PERIAPSIS":398.811,"OBJECT_TYPE":"PAYLOAD","RCS_SIZE":"LARGE","COUNTRY_CODE":"US","LAUNCH_DATE":"2020-06-04","SITE":"AFETR","DECAY_DATE":null,"DECAYED":0,"FILE":3035570,"GP_ID":177115550,"TLE_LINE0":"0 STARLINK-1439","TLE_LINE1":"1 45716U 20035BM  21132.47012371 -.00001511  00000-0 -14537-4 0  9991","TLE_LINE2":"2 45716  52.9978 301.0375 0001328  72.1484 287.9671 15.55840906 54747"},"version":"v1.0","launch":"5eb87d45ffd86e000604b387","longitude":58.61208508463577,"latitude":-53.14583429174863,"height_km":419.00801608835536,"velocity_kms":7.65898375590707,"id":"5eed7716096e5900069857f3"},{"spaceTrack":{"CCSDS_OMM_VERS":"2.0","COMMENT":"GENERATED VIA SPACE-TRACK.ORG API","CREATION_DATE":"2021-05-12T07:36:10","ORIGINATOR":"18 SPCS","OBJECT_NAME":"STARLINK-1412","OBJECT_ID":"2020-035BC","CENTER_NAME":"EARTH","REF_FRAME":"TEME","TIME_SYSTEM":"UTC","MEAN_ELEMENT_THEORY":"SGP4","EPOCH":"2021-05-12T02:54:17.120736","MEAN_MOTION":15.06397811,"ECCENTRICITY":0.0001736,"INCLINATION":53.0598,"RA_OF_ASC_NODE":29.09,"ARG_OF_PERICENTER":67.8943,"MEAN_ANOMALY":292.223,"EPHEMERIS_TYPE":0,"CLASSIFICATION_TYPE":"U","NORAD_CAT_ID":45707,"ELEMENT_SET_NO":999,"REV_AT_EPOCH":5308,"BSTAR":-0.000045209,"MEAN_MOTION_DOT":-0.00000955,"MEAN_MOTION_DDOT":0,"SEMIMAJOR_AXIS":6925.355,"PERIOD":95.592,"APOAPSIS":548.423,"PERIAPSIS":546.018,"OBJECT_TYPE":"PAYLOAD","RCS_SIZE":"LARGE","COUNTRY_CODE":"US","LAUNCH_DATE":"2020-06-04","SITE":"AFETR","DECAY_DATE":null,"DECAYED":0,"FILE":3035299,"GP_ID":177109549,"TLE_LINE0":"0 STARLINK-1412","TLE_LINE1":"1 45707U 20035BC  21132.12103149 -.00000955  00000-0 -45209-4 0  9998","TLE_LINE2":"2 45707  53.0598  29.0900 0001736  67.8943 292.2230 15.06397811 53086"},"version":"v1.0","launch":"5eb87d45ffd86e000604b387","longitude":-160.14109391210084,"latitude":-38.500659001309046,"height_km":560.3662602443719,"velocity_kms":7.5807092067104955,"id":"5eed7716096e5900069857f4"},{"spaceTrack":{"CCSDS_OMM_VERS":"2.0","COMMENT":"GENERATED VIA SPACE-TRACK.ORG API","CREATION_DATE":"2021-05-12T07:46:11","ORIGINATOR":"18 SPCS","OBJECT_NAME":"STARLINK-1461","OBJECT_ID":"2020-038A","CENTER_NAME":"EARTH","REF_FRAME":"TEME","TIME_SYSTEM":"UTC","MEAN_ELEMENT_THEORY":"SGP4","EPOCH":"2021-05-12T06:15:59.122080","MEAN_MOTION":15.06393065,"ECCENTRICITY":0.0000987,"INCLINATION":53.0578,"RA_OF_ASC_NODE":228.4689,"ARG_OF_PERICENTER":128.9494,"MEAN_ANOMALY":231.1583,"EPHEMERIS_TYPE":0,"CLASSIFICATION_TYPE":"U","NORAD_CAT_ID":45730,"ELEMENT_SET_NO":999,"REV_AT_EPOCH":5167,"BSTAR":-0.000080602,"MEAN_MOTION_DOT":-0.00001481,"MEAN_MOTION_DDOT":0,"SEMIMAJOR_AXIS":6925.37,"PERIOD":95.593,"APOAPSIS":547.918,"PERIAPSIS":546.551,"OBJECT_TYPE":"PAYLOAD","RCS_SIZE":"LARGE","COUNTRY_CODE":"US","LAUNCH_DATE":"2020-06-13","SITE":"AFETR","DECAY_DATE":null,"DECAYED":0,"FILE":3035324,"GP_ID":177109998,"TLE_LINE0":"0 STARLINK-1461","TLE_LINE1":"1 45730U 20038A   21132.26110095 -.00001481  00000-0 -80602-4 0  9991","TLE_LINE2":"2 45730  53.0578 228.4689 0000987 128.9494 231.1583 15.06393065 51679"},"version":"v1.0","launch":"5eb87d46ffd86e000604b389","longitude":-15.40618306847834,"latitude":-53.195100441405295,"height_km":566.2314624752962,"velocity_kms":7.577583935165457,"id":"5eed7716096e5900069857f5"},{"spaceTrack":{"CCSDS_OMM_VERS":"2.0","COMMENT":"GENERATED VIA SPACE-TRACK.ORG API","CREATION_DATE":"2021-05-12T06:56:10","ORIGINATOR":"18 SPCS","OBJECT_NAME":"STARLINK-1468","OBJECT_ID":"2020-038E","CENTER_NAME":"EARTH","REF_FRAME":"TEME","TIME_SYSTEM":"UTC","MEAN_ELEMENT_THEORY":"SGP4","EPOCH":"2021-05-12T02:54:17.246880","MEAN_MOTION":15.06398815,"ECCENTRICITY":0.0001019,"INCLINATION":53.0579,"RA_OF_ASC_NODE":229.099,"ARG_OF_PERICENTER":124.0206,"MEAN_ANOMALY":236.0879,"EPHEMERIS_TYPE":0,"CLASSIFICATION_TYPE":"U","NORAD_CAT_ID":45734,"ELEMENT_SET_NO":999,"REV_AT_EPOCH":5164,"BSTAR":0.000045907,"MEAN_MOTION_DOT":0.00000403,"MEAN_MOTION_DDOT":0,"SEMIMAJOR_AXIS":6925.352,"PERIOD":95.592,"APOAPSIS":547.923,"PERIAPSIS":546.511,"OBJECT_TYPE":"PAYLOAD","RCS_SIZE":"LARGE","COUNTRY_CODE":"US","LAUNCH_DATE":"2020-06-13","SITE":"AFETR","DECAY_DATE":null,"DECAYED":0,"FILE":3035238,"GP_ID":177108135,"TLE_LINE0":"0 STARLINK-1468","TLE_LINE1":"1 45734U 20038E   21132.12103295  .00000403  00000-0  45907-4 0  9994","TLE_LINE2":"2 45734  53.0579 229.0990 0001019 124.0206 236.0879 15.06398815 51648"},"version":"v1.0","launch":"5eb87d46ffd86e000604b389","longitude":38.801185594118664,"latitude":-39.239216994708634,"height_km":560.7530584229926,"velocity_kms":7.580444524106375,"id":"5eed7716096e5900069857f6"}]